NEXTSAT-1               
1 43811U 18099BF  26068.68342010  .00004546  00000+0  29857-3 0  9992
2 43811  97.4203 114.8574 0011320 323.9610  36.0854 15.08057555396886
STARLINK-35047          
1 65806U 25218R   26068.58386233 -.00018879  00000+0 -13096-2 0  9998
2 65806  97.6012 292.8474 0001946  90.6511 269.4938 15.05593407 24950
