[{"OBJECT_NAME":"NEXTSAT-1","OBJECT_ID":"2018-099BF","EPOCH":"2026-03-09T16:24:07.497504","MEAN_MOTION":15.08057555,"ECCENTRICITY":0.001132,"INCLINATION":97.4203,"RA_OF_ASC_NODE":114.8574,"ARG_OF_PERICENTER":323.961,"MEAN_ANOMALY":36.0854,"EPHEMERIS_TYPE":0,"CLASSIFICATION_TYPE":"U","NORAD_CAT_ID":43811,"ELEMENT_SET_NO":999,"REV_AT_EPOCH":39688,"BSTAR":0.00029857014,"MEAN_MOTION_DOT":4.546e-5,"MEAN_MOTION_DDOT":0},{"OBJECT_NAME":"STARLINK-35047","OBJECT_ID":"2025-218R","EPOCH":"2026-03-09T14:00:45.705312","MEAN_MOTION":15.05593407,"ECCENTRICITY":0.0001946,"INCLINATION":97.6012,"RA_OF_ASC_NODE":292.8474,"ARG_OF_PERICENTER":90.6511,"MEAN_ANOMALY":269.4938,"EPHEMERIS_TYPE":0,"CLASSIFICATION_TYPE":"U","NORAD_CAT_ID":65806,"ELEMENT_SET_NO":999,"REV_AT_EPOCH":2495,"BSTAR":-0.0013096,"MEAN_MOTION_DOT":-0.00018879,"MEAN_MOTION_DDOT":0}]
